[Satellite]
VERSION=1.1
NAME=XW-2D
NICKNAME=XW-2D
TLE1=1 40907U 15049J   17186.25971965  .00000615  00000-0  36712-4 0  9991
TLE2=2 40907  97.4514 191.1466 0015563 144.8216 215.4046 15.14658948 98972
